[{"CCSDS_OMM_VERS":"2.0","COMMENT":"GENERATED VIA SPACE-TRACK.ORG API","CREATION_DATE":"2020-12-02T04:55:40","ORIGINATOR":"18 SPCS","OBJECT_NAME":"STARLINK-1581","OBJECT_ID":"2020-055R","CENTER_NAME":"EARTH","REF_FRAME":"TEME","TIME_SYSTEM":"UTC","MEAN_ELEMENT_THEORY":"SGP4","EPOCH":"2020-12-01T19:56:57.971328","MEAN_MOTION":"15.05574995","ECCENTRICITY":"0.00023630","INCLINATION":"53.0130","RA_OF_ASC_NODE":"123.0973","ARG_OF_PERICENTER":"92.5365","MEAN_ANOMALY":"267.5893","EPHEMERIS_TYPE":"0","CLASSIFICATION_TYPE":"U","NORAD_CAT_ID":"46042","ELEMENT_SET_NO":"999","REV_AT_EPOCH":"1888","BSTAR":"-0.00002244600000","MEAN_MOTION_DOT":"-0.00000607","MEAN_MOTION_DDOT":"0.0000000000000","SEMIMAJOR_AXIS":"6927.878","PERIOD":"95.644","APOAPSIS":"551.380","PERIAPSIS":"548.106","OBJECT_TYPE":"PAYLOAD","RCS_SIZE":"LARGE","COUNTRY_CODE":"US","LAUNCH_DATE":"2020-08-07","SITE":"AFETR","DECAY_DATE":null,"FILE":"2895815","GP_ID":"166730472","TLE_LINE0":"0 STARLINK-1581","TLE_LINE1":"1 46042U 20055R   20336.83122652 -.00000607  00000-0 -22446-4 0  9998","TLE_LINE2":"2 46042  53.0130 123.0973 0002363  92.5365 267.5893 15.05574995 18884"},{"CCSDS_OMM_VERS":"2.0","COMMENT":"GENERATED VIA SPACE-TRACK.ORG API","CREATION_DATE":"2020-12-02T04:55:40","ORIGINATOR":"18 SPCS","OBJECT_NAME":"STARLINK-1539","OBJECT_ID":"2020-055AX","CENTER_NAME":"EARTH","REF_FRAME":"TEME","TIME_SYSTEM":"UTC","MEAN_ELEMENT_THEORY":"SGP4","EPOCH":"2020-12-01T19:58:29.824896","MEAN_MOTION":"15.05583804","ECCENTRICITY":"0.00013830","INCLINATION":"52.9858","RA_OF_ASC_NODE":"93.2375","ARG_OF_PERICENTER":"80.9853","MEAN_ANOMALY":"279.1291","EPHEMERIS_TYPE":"0","CLASSIFICATION_TYPE":"U","NORAD_CAT_ID":"46072","ELEMENT_SET_NO":"999","REV_AT_EPOCH":"1933","BSTAR":"-0.00002598400000","MEAN_MOTION_DOT":"-0.00000658","MEAN_MOTION_DDOT":"0.0000000000000","SEMIMAJOR_AXIS":"6927.851","PERIOD":"95.643","APOAPSIS":"550.674","PERIAPSIS":"548.758","OBJECT_TYPE":"PAYLOAD","RCS_SIZE":"LARGE","COUNTRY_CODE":"US","LAUNCH_DATE":"2020-08-07","SITE":"AFETR","DECAY_DATE":null,"FILE":"2895815","GP_ID":"166730928","TLE_LINE0":"0 STARLINK-1539","TLE_LINE1":"1 46072U 20055AX  20336.83228964 -.00000658  00000-0 -25984-4 0  9990","TLE_LINE2":"2 46072  52.9858  93.2375 0001383  80.9853 279.1291 15.05583804 19331"},{"CCSDS_OMM_VERS":"2.0","COMMENT":"GENERATED VIA SPACE-TRACK.ORG API","CREATION_DATE":"2020-12-02T04:55:40","ORIGINATOR":"18 SPCS","OBJECT_NAME":"STARLINK-1526","OBJECT_ID":"2020-055C","CENTER_NAME":"EARTH","REF_FRAME":"TEME","TIME_SYSTEM":"UTC","MEAN_ELEMENT_THEORY":"SGP4","EPOCH":"2020-12-01T20:01:45.525216","MEAN_MOTION":"15.05573185","ECCENTRICITY":"0.00025730","INCLINATION":"53.0115","RA_OF_ASC_NODE":"123.0947","ARG_OF_PERICENTER":"102.1400","MEAN_ANOMALY":"257.9876","EPHEMERIS_TYPE":"0","CLASSIFICATION_TYPE":"U","NORAD_CAT_ID":"46029","ELEMENT_SET_NO":"999","REV_AT_EPOCH":"1892","BSTAR":"-0.00008089800000","MEAN_MOTION_DOT":"-0.00001458","MEAN_MOTION_DDOT":"0.0000000000000","SEMIMAJOR_AXIS":"6927.883","PERIOD":"95.644","APOAPSIS":"551.531","PERIAPSIS":"547.966","OBJECT_TYPE":"PAYLOAD","RCS_SIZE":"LARGE","COUNTRY_CODE":"US","LAUNCH_DATE":"2020-08-07","SITE":"AFETR","DECAY_DATE":null,"FILE":"2895815","GP_ID":"166729738","TLE_LINE0":"0 STARLINK-1526","TLE_LINE1":"1 46029U 20055C   20336.83455469 -.00001458  00000-0 -80898-4 0  9998","TLE_LINE2":"2 46029  53.0115 123.0947 0002573 102.1400 257.9876 15.05573185 18923"},{"CCSDS_OMM_VERS":"2.0","COMMENT":"GENERATED VIA SPACE-TRACK.ORG API","CREATION_DATE":"2020-12-02T04:55:40","ORIGINATOR":"18 SPCS","OBJECT_NAME":"STARLINK-1548","OBJECT_ID":"2020-055AD","CENTER_NAME":"EARTH","REF_FRAME":"TEME","TIME_SYSTEM":"UTC","MEAN_ELEMENT_THEORY":"SGP4","EPOCH":"2020-12-01T20:02:53.873664","MEAN_MOTION":"15.06041116","ECCENTRICITY":"0.00019030","INCLINATION":"52.9900","RA_OF_ASC_NODE":"113.1783","ARG_OF_PERICENTER":"102.1052","MEAN_ANOMALY":"258.0149","EPHEMERIS_TYPE":"0","CLASSIFICATION_TYPE":"U","NORAD_CAT_ID":"46054","ELEMENT_SET_NO":"999","REV_AT_EPOCH":"1906","BSTAR":"0.00322030000000","MEAN_MOTION_DOT":"0.00047547","MEAN_MOTION_DDOT":"0.0000000000000","SEMIMAJOR_AXIS":"6926.448","PERIOD":"95.614","APOAPSIS":"549.631","PERIAPSIS":"546.995","OBJECT_TYPE":"PAYLOAD","RCS_SIZE":"LARGE","COUNTRY_CODE":"US","LAUNCH_DATE":"2020-08-07","SITE":"AFETR","DECAY_DATE":null,"FILE":"2895815","GP_ID":"166729973","TLE_LINE0":"0 STARLINK-1548","TLE_LINE1":"1 46054U 20055AD  20336.83534576  .00047547  00000-0  32203-2 0  9995","TLE_LINE2":"2 46054  52.9900 113.1783 0001903 102.1052 258.0149 15.06041116 19064"},{"CCSDS_OMM_VERS":"2.0","COMMENT":"GENERATED VIA SPACE-TRACK.ORG API","CREATION_DATE":"2020-12-02T04:55:40","ORIGINATOR":"18 SPCS","OBJECT_NAME":"STARLINK-1549","OBJECT_ID":"2020-055AZ","CENTER_NAME":"EARTH","REF_FRAME":"TEME","TIME_SYSTEM":"UTC","MEAN_ELEMENT_THEORY":"SGP4","EPOCH":"2020-12-01T20:03:16.601184","MEAN_MOTION":"15.05587152","ECCENTRICITY":"0.00015020","INCLINATION":"53.0182","RA_OF_ASC_NODE":"93.0422","ARG_OF_PERICENTER":"77.8139","MEAN_ANOMALY":"282.3018","EPHEMERIS_TYPE":"0","CLASSIFICATION_TYPE":"U","NORAD_CAT_ID":"46074","ELEMENT_SET_NO":"999","REV_AT_EPOCH":"1933","BSTAR":"-0.00001179500000","MEAN_MOTION_DOT":"-0.00000451","MEAN_MOTION_DDOT":"0.0000000000000","SEMIMAJOR_AXIS":"6927.840","PERIOD":"95.643","APOAPSIS":"550.746","PERIAPSIS":"548.665","OBJECT_TYPE":"PAYLOAD","RCS_SIZE":"LARGE","COUNTRY_CODE":"US","LAUNCH_DATE":"2020-08-07","SITE":"AFETR","DECAY_DATE":null,"FILE":"2895815","GP_ID":"166730476","TLE_LINE0":"0 STARLINK-1549","TLE_LINE1":"1 46074U 20055AZ  20336.83560881 -.00000451  00000-0 -11795-4 0  9995","TLE_LINE2":"2 46074  53.0182  93.0422 0001502  77.8139 282.3018 15.05587152 19334"},{"CCSDS_OMM_VERS":"2.0","COMMENT":"GENERATED VIA SPACE-TRACK.ORG API","CREATION_DATE":"2020-12-02T04:55:40","ORIGINATOR":"18 SPCS","OBJECT_NAME":"STARLINK-1584","OBJECT_ID":"2020-055T","CENTER_NAME":"EARTH","REF_FRAME":"TEME","TIME_SYSTEM":"UTC","MEAN_ELEMENT_THEORY":"SGP4","EPOCH":"2020-12-01T20:06:31.891104","MEAN_MOTION":"15.05583528","ECCENTRICITY":"0.00022430","INCLINATION":"53.0074","RA_OF_ASC_NODE":"123.0897","ARG_OF_PERICENTER":"92.7926","MEAN_ANOMALY":"267.3319","EPHEMERIS_TYPE":"0","CLASSIFICATION_TYPE":"U","NORAD_CAT_ID":"46044","ELEMENT_SET_NO":"999","REV_AT_EPOCH":"1892","BSTAR":"0.00007687600000","MEAN_MOTION_DOT":"0.00000841","MEAN_MOTION_DDOT":"0.0000000000000","SEMIMAJOR_AXIS":"6927.852","PERIOD":"95.643","APOAPSIS":"551.270","PERIAPSIS":"548.163","OBJECT_TYPE":"PAYLOAD","RCS_SIZE":"LARGE","COUNTRY_CODE":"US","LAUNCH_DATE":"2020-08-07","SITE":"AFETR","DECAY_DATE":null,"FILE":"2895815","GP_ID":"166731387","TLE_LINE0":"0 STARLINK-1584","TLE_LINE1":"1 46044U 20055T   20336.83786911  .00000841  00000-0  76876-4 0  9998","TLE_LINE2":"2 46044  53.0074 123.0897 0002243  92.7926 267.3319 15.05583528 18928"},{"CCSDS_OMM_VERS":"2.0","COMMENT":"GENERATED VIA SPACE-TRACK.ORG API","CREATION_DATE":"2020-12-02T04:55:40","ORIGINATOR":"18 SPCS","OBJECT_NAME":"STARLINK-1540","OBJECT_ID":"2020-055AA","CENTER_NAME":"EARTH","REF_FRAME":"TEME","TIME_SYSTEM":"UTC","MEAN_ELEMENT_THEORY":"SGP4","EPOCH":"2020-12-01T20:07:58.897632","MEAN_MOTION":"15.05979020","ECCENTRICITY":"0.00026260","INCLINATION":"53.0100","RA_OF_ASC_NODE":"113.0772","ARG_OF_PERICENTER":"130.2752","MEAN_ANOMALY":"229.8466","EPHEMERIS_TYPE":"0","CLASSIFICATION_TYPE":"U","NORAD_CAT_ID":"46051","ELEMENT_SET_NO":"999","REV_AT_EPOCH":"1907","BSTAR":"0.00326740000000","MEAN_MOTION_DOT":"0.00048171","MEAN_MOTION_DDOT":"0.0000000000000","SEMIMAJOR_AXIS":"6926.639","PERIOD":"95.618","APOAPSIS":"550.323","PERIAPSIS":"546.685","OBJECT_TYPE":"PAYLOAD","RCS_SIZE":"LARGE","COUNTRY_CODE":"US","LAUNCH_DATE":"2020-08-07","SITE":"AFETR","DECAY_DATE":null,"FILE":"2895815","GP_ID":"166730719","TLE_LINE0":"0 STARLINK-1540","TLE_LINE1":"1 46051U 20055AA  20336.83887613  .00048171  00000-0  32674-2 0  9991","TLE_LINE2":"2 46051  53.0100 113.0772 0002626 130.2752 229.8466 15.05979020 19076"},{"CCSDS_OMM_VERS":"2.0","COMMENT":"GENERATED VIA SPACE-TRACK.ORG API","CREATION_DATE":"2020-12-02T04:55:40","ORIGINATOR":"18 SPCS","OBJECT_NAME":"STARLINK-1566","OBJECT_ID":"2020-055BE","CENTER_NAME":"EARTH","REF_FRAME":"TEME","TIME_SYSTEM":"UTC","MEAN_ELEMENT_THEORY":"SGP4","EPOCH":"2020-12-01T20:08:04.264800","MEAN_MOTION":"15.05577002","ECCENTRICITY":"0.00012470","INCLINATION":"53.0131","RA_OF_ASC_NODE":"93.0561","ARG_OF_PERICENTER":"83.4675","MEAN_ANOMALY":"276.6455","EPHEMERIS_TYPE":"0","CLASSIFICATION_TYPE":"U","NORAD_CAT_ID":"46079","ELEMENT_SET_NO":"999","REV_AT_EPOCH":"1934","BSTAR":"0.00016624000000","MEAN_MOTION_DOT":"0.00002143","MEAN_MOTION_DDOT":"0.0000000000000","SEMIMAJOR_AXIS":"6927.872","PERIOD":"95.644","APOAPSIS":"550.600","PERIAPSIS":"548.873","OBJECT_TYPE":"PAYLOAD","RCS_SIZE":"LARGE","COUNTRY_CODE":"US","LAUNCH_DATE":"2020-08-07","SITE":"AFETR","DECAY_DATE":null,"FILE":"2895815","GP_ID":"166730222","TLE_LINE0":"0 STARLINK-1566","TLE_LINE1":"1 46079U 20055BE  20336.83893825  .00002143  00000-0  16624-3 0  9990","TLE_LINE2":"2 46079  53.0131  93.0561 0001247  83.4675 276.6455 15.05577002 19346"}]